LEMUR-2-AMANDA-SVANTE   
1 48269U 21034B   26068.77637527  .00030872  00000+0  11134-2 0  9996
2 48269  97.5829 144.8625 0002703 205.4721 154.6385 15.28469003265849
STARLINK-32510          
1 62040U 24216J   26068.52684532  .00025524  00000+0  93471-3 0  9998
2 62040  42.9971 264.7697 0000959 195.8026 164.2795 15.27549679 73763
